NORAD_CAT_ID,OBJECT_NAME,OBJECT_TYPE,EPOCH,MEAN_MOTION,ECCENTRICITY,INCLINATION,RA_OF_ASC_NODE,ARG_OF_PERICENTER,MEAN_ANOMALY,BSTAR,MEAN_MOTION_DOT,MEAN_MOTION_DDOT,TLE_LINE0,TLE_LINE1,TLE_LINE2,SEMIMAJOR_AXIS,PERIOD,APOGEE,PERIGEE,DECAYED
55638.0,STARLINK-5507,PAYLOAD,2024-07-22 14:53:56,14.983742,0.0003608,69.9996,264.7959,272.1057,87.9689,0.0012558,0.00014941,0.0,0 STARLINK-5507,1 55638U 23021L   24204.62079851  .00014941  00000-0  12558-2 0  9997,2 55638  69.9996 264.7959 0003608 272.1057  87.9689 14.98374200 79168,6950.056,96.104,574.429,569.414,0.0
55638.0,STARLINK-5507,PAYLOAD,2024-07-23 03:43:01,14.98355783,0.0002482,70.003,263.452,233.8484,126.2445,0.00076798,9.088e-05,0.0,0 STARLINK-5507,1 55638U 23021L   24205.15487506  .00009088  00000-0  76798-3 0  9999,2 55638  70.0030 263.4520 0002482 233.8484 126.2445 14.98355783 78944,6950.113,96.105,573.703,570.253,0.0
55638.0,STARLINK-5507,PAYLOAD,2024-07-23 10:07:33,14.98342052,0.0003024,70.0002,262.7761,264.2086,95.8728,-3.517e-05,-5.13e-06,0.0,0 STARLINK-5507,1 55638U 23021L   24205.42191896 -.00000513  00000-0 -35170-4 0  9999,2 55638  70.0002 262.7761 0003024 264.2086  95.8728 14.98342052 78985,6950.156,96.106,574.122,569.919,0.0
55638.0,STARLINK-5507,PAYLOAD,2024-07-24 05:21:11,14.98334558,0.0002907,69.9985,260.7543,250.4129,109.6717,-0.00012798,-1.62e-05,0.0,0 STARLINK-5507,1 55638U 23021L   24206.22304518 -.00001620  00000-0 -12798-3 0  9995,2 55638  69.9985 260.7543 0002907 250.4129 109.6717 14.98334558 79101,6950.179,96.107,574.064,570.023,0.0
55638.0,STARLINK-5507,PAYLOAD,2024-07-24 10:09:35,14.98331194,0.0003131,69.9987,260.2495,264.46,95.6202,-0.00016865,-2.105e-05,0.0,0 STARLINK-5507,1 55638U 23021L   24206.42332737 -.00002105  00000-0 -16865-3 0  9999,2 55638  69.9987 260.2495 0003131 264.4600  95.6202 14.98331194 79435,6950.189,96.107,574.23,569.878,0.0
55638.0,STARLINK-5507,PAYLOAD,2024-07-25 05:23:11,14.98331314,0.0003424,69.9979,258.2302,267.2093,92.8674,7.5056e-05,8.03e-06,0.0,0 STARLINK-5507,1 55638U 23021L   24207.22443990  .00000803  00000-0  75056-4 0  9991,2 55638  69.9979 258.2302 0003424 267.2093  92.8674 14.98331314 79258,6950.189,96.107,574.434,569.674,0.0
55638.0,STARLINK-5507,PAYLOAD,2024-07-25 06:59:19,14.98331859,0.000341,69.998,258.0619,267.0275,93.0494,8.0348e-05,8.66e-06,0.0,0 STARLINK-5507,1 55638U 23021L   24207.29119944  .00000866  00000-0  80348-4 0  9996,2 55638  69.9980 258.0619 0003410 267.0275  93.0494 14.98331859 79565,6950.187,96.107,574.422,569.682,0.0
55638.0,STARLINK-5507,PAYLOAD,2024-07-25 10:11:35,14.98332341,0.0003408,69.998,257.7252,266.9786,93.0983,8.4194e-05,9.12e-06,0.0,0 STARLINK-5507,1 55638U 23021L   24207.42471904  .00000912  00000-0  84194-4 0  9993,2 55638  69.9980 257.7252 0003408 266.9786  93.0983 14.98332341 79588,6950.186,96.107,574.419,569.682,0.0
55638.0,STARLINK-5507,PAYLOAD,2024-07-26 05:25:12,14.98334788,0.0003585,69.9975,255.7048,269.2796,90.7953,0.00017062,1.944e-05,0.0,0 STARLINK-5507,1 55638U 23021L   24208.22583384  .00001944  00000-0  17062-3 0  9993,2 55638  69.9975 255.7048 0003585 269.2796  90.7953 14.98334788 79405,6950.178,96.107,574.535,569.551,0.0
55638.0,STARLINK-5507,PAYLOAD,2024-07-26 10:13:35,14.98338174,0.0003478,69.9975,255.1996,267.8441,92.232,0.00020403,2.343e-05,0.0,0 STARLINK-5507,1 55638U 23021L   24208.42611053  .00002343  00000-0  20403-3 0  9997,2 55638  69.9975 255.1996 0003478 267.8441  92.2320 14.98338174 79737,6950.168,96.106,574.45,569.615,0.0
55638.0,STARLINK-5507,PAYLOAD,2024-07-26 19:50:24,14.98338154,0.0003507,69.9976,254.1903,267.996,92.0798,0.00014872,1.682e-05,0.0,0 STARLINK-5507,1 55638U 23021L   24208.82666979  .00001682  00000-0  14872-3 0  9996,2 55638  69.9976 254.1903 0003507 267.9960  92.0798 14.98338154 79796,6950.168,96.106,574.47,569.595,0.0
55638.0,STARLINK-5507,PAYLOAD,2024-07-27 05:27:12,14.9833529,0.0003172,69.9984,253.1817,264.2278,95.8519,1.9179e-05,1.36e-06,0.0,0 STARLINK-5507,1 55638U 23021L   24209.22723373  .00000136  00000-0  19179-4 0  9992,2 55638  69.9984 253.1817 0003172 264.2278  95.8519 14.98335290 79552,6950.177,96.107,574.246,569.837,0.0
55638.0,STARLINK-5507,PAYLOAD,2024-07-27 10:15:37,14.98333875,0.0003204,69.9983,252.6766,264.6769,95.4025,-9.7701e-07,-1.05e-06,0.0,0 STARLINK-5507,1 55638U 23021L   24209.42751420 -.00000105  00000-0 -97701-6 0  9995,2 55638  69.9983 252.6766 0003204 264.6769  95.4025 14.98333875 79884,6950.181,96.107,574.273,569.819,0.0
55638.0,STARLINK-5507,PAYLOAD,2024-07-28 05:29:14,14.98332212,0.0003182,69.9981,250.6566,264.7592,95.3204,-6.1916e-05,-8.32e-06,0.0,0 STARLINK-5507,1 55638U 23021L   24210.22863487 -.00000832  00000-0 -61916-4 0  9996,2 55638  69.9981 250.6566 0003182 264.7592  95.3204 14.98332212 79701,6950.186,96.107,574.263,569.84,0.0
55638.0,STARLINK-5507,PAYLOAD,2024-07-28 11:53:46,14.98330593,0.000321,69.9981,249.983,266.1067,93.9725,-8.1942e-05,-1.071e-05,0.0,0 STARLINK-5507,1 55638U 23021L   24210.49567585 -.00001071  00000-0 -81942-4 0  9992,2 55638  69.9981 249.9830 0003210 266.1067  93.9725 14.98330593 80042,6950.191,96.107,574.287,569.825,0.0
55638.0,STARLINK-5507,PAYLOAD,2024-07-29 05:31:14,14.9832894,0.0003384,69.9976,248.1306,267.7681,92.3091,4.871e-05,4.88e-06,0.0,0 STARLINK-5507,1 55638U 23021L   24211.23003320  .00000488  00000-0  48710-4 0  9992,2 55638  69.9976 248.1306 0003384 267.7681  92.3091 14.98328940 79855,6950.196,96.107,574.413,569.709,0.0
55638.0,STARLINK-5507,PAYLOAD,2024-07-29 11:55:47,14.98330822,0.0003412,69.9976,247.4572,268.1969,91.8799,4.303e-05,4.2e-06,0.0,0 STARLINK-5507,1 55638U 23021L   24211.49707246  .00000420  00000-0  43030-4 0  9994,2 55638  69.9976 247.4572 0003412 268.1969  91.8799 14.98330822 80198,6950.19,96.107,574.427,569.684,0.0
55638.0,STARLINK-5507,PAYLOAD,2024-07-29 19:56:27,14.98329271,0.000352,69.9973,246.6153,269.7661,90.3095,5.628e-05,5.78e-06,0.0,0 STARLINK-5507,1 55638U 23021L   24211.83087306  .00000578  00000-0  56280-4 0  9995,2 55638  69.9973 246.6153 0003520 269.7661  90.3095 14.98329271 80242,6950.195,96.107,574.507,569.614,0.0
55638.0,STARLINK-5507,PAYLOAD,2024-07-30 05:33:15,14.98327614,0.000351,69.9974,245.6054,269.5809,90.4948,4.6812e-05,4.65e-06,0.0,0 STARLINK-5507,1 55638U 23021L   24212.23143497  .00000465  00000-0  46812-4 0  9999,2 55638  69.9974 245.6054 0003510 269.5809  90.4948 14.98327614 80004,6950.2,96.107,574.505,569.626,0.0
55638.0,STARLINK-5507,PAYLOAD,2024-07-30 11:57:48,14.98329941,0.0003507,69.9975,244.9323,269.8771,90.1986,6.9268e-05,7.34e-06,0.0,0 STARLINK-5507,1 55638U 23021L   24212.49847342  .00000734  00000-0  69268-4 0  9996,2 55638  69.9975 244.9323 0003507 269.8771  90.1986 14.98329941 80344,6950.193,96.107,574.496,569.621,0.0
55638.0,STARLINK-5507,PAYLOAD,2024-07-30 19:58:28,14.98328279,0.0003492,69.9974,244.09,269.5886,90.4873,5.5621e-05,5.71e-06,0.0,0 STARLINK-5507,1 55638U 23021L   24212.83227519  .00000571  00000-0  55621-4 0  9999,2 55638  69.9974 244.0900 0003492 269.5886  90.4873 14.98328279 80398,6950.198,96.107,574.49,569.636,0.0
55638.0,STARLINK-5507,PAYLOAD,2024-07-31 05:35:16,14.98330561,0.0003494,69.9974,243.0799,269.4314,90.6445,2.4454e-05,1.99e-06,0.0,0 STARLINK-5507,1 55638U 23021L   24213.23283486  .00000199  00000-0  24454-4 0  9995,2 55638  69.9974 243.0799 0003494 269.4314  90.6445 14.98330561 80158,6950.191,96.107,574.485,569.628,0.0
55638.0,STARLINK-5507,PAYLOAD,2024-07-31 11:59:49,14.98330386,0.0003507,69.9974,242.4068,269.798,90.2777,2.0242e-05,1.48e-06,0.0,0 STARLINK-5507,1 55638U 23021L   24213.49987488  .00000148  00000-0  20242-4 0  9991,2 55638  69.9974 242.4068 0003507 269.7980  90.2777 14.98330386 80493,6950.192,96.107,574.494,569.619,0.0
55638.0,STARLINK-5507,PAYLOAD,2024-08-01 05:37:17,14.98332133,0.0003493,69.9974,240.555,269.7887,90.2872,7.6152e-05,8.16e-06,0.0,0 STARLINK-5507,1 55638U 23021L   24214.23423230  .00000816  00000-0  76152-4 0  9997,2 55638  69.9974 240.5550 0003493 269.7887  90.2872 14.98332133 80306,6950.186,96.107,574.479,569.624,0.0
55638.0,STARLINK-5507,PAYLOAD,2024-08-01 12:01:49,14.98334628,0.0003501,69.9974,239.8816,269.9905,90.0853,8.3192e-05,9e-06,0.0,0 STARLINK-5507,1 55638U 23021L   24214.50127025  .00000900  00000-0  83192-4 0  9996,2 55638  69.9974 239.8816 0003501 269.9905  90.0853 14.98334628 80640,6950.179,96.107,574.477,569.61,0.0
55638.0,STARLINK-5507,PAYLOAD,2024-08-02 05:39:18,14.98332344,0.0003453,69.9976,238.0297,270.4165,89.6599,7.6591e-05,8.21e-06,0.0,0 STARLINK-5507,1 55638U 23021L   24215.23563089  .00000821  00000-0  76591-4 0  9998,2 55638  69.9976 238.0297 0003453 270.4165  89.6599 14.98332344 80450,6950.186,96.107,574.451,569.651,0.0
55638.0,STARLINK-5507,PAYLOAD,2024-08-02 12:03:50,14.98333457,0.000346,69.9977,237.3563,270.8347,89.2415,7.8557e-05,8.44e-06,0.0,0 STARLINK-5507,1 55638U 23021L   24215.50267004  .00000844  00000-0  78557-4 0  9995,2 55638  69.9977 237.3563 0003460 270.8347  89.2415 14.98333457 80799,6950.182,96.107,574.452,569.642,0.0
55638.0,STARLINK-5507,PAYLOAD,2024-08-02 18:28:22,14.98332575,0.0003455,69.9978,236.6827,271.2878,88.7885,6.0381e-05,6.27e-06,0.0,0 STARLINK-5507,1 55638U 23021L   24215.76971062  .00000627  00000-0  60381-4 0  9994,2 55638  69.9978 236.6827 0003455 271.2878  88.7885 14.98332575 80833,6950.185,96.107,574.451,569.649,0.0
55638.0,STARLINK-5507,PAYLOAD,2024-08-03 05:41:19,14.98331931,0.0003379,69.998,235.5048,270.003,90.0742,4.0925e-06,-4.4e-07,0.0,0 STARLINK-5507,1 55638U 23021L   24216.23703160 -.00000044  00000-0  40925-5 0  9996,2 55638  69.9980 235.5048 0003379 270.0030  90.0742 14.98331931 80609,6950.187,96.107,574.4,569.703,0.0
55638.0,STARLINK-5507,PAYLOAD,2024-08-03 12:05:51,14.98331372,0.0003402,69.998,234.8318,268.4347,91.6422,-6.8487e-06,-1.75e-06,0.0,0 STARLINK-5507,1 55638U 23021L   24216.50407174 -.00000175  00000-0 -68487-5 0  9991,2 55638  69.9980 234.8318 0003402 268.4347  91.6422 14.98331372 80948,6950.189,96.107,574.418,569.689,0.0
